,street,n,x,y,id,name
1,1,2,16.7380009,18.6959991,1,Map Frame
2,1,2,17.6599998,18.7119999,2,Map Frame
3,2,2,14.4619999,18.6550007,3,Map Frame
4,2,2,16.7380009,18.6959991,4,Map Frame
5,3,2,12.7938805,18.6161308,5,Map Frame
6,3,2,14.4619999,18.6550007,6,Map Frame
7,4,2,11.5998764,18.5883083,7,Map Frame
8,4,2,12.7938805,18.6161308,8,Map Frame
9,5,2,10.971961,18.5736771,9,Map Frame
10,5,2,11.5998764,18.5883083,10,Map Frame
11,6,2,10.7959166,18.5695744,11,Map Frame
12,6,2,10.971961,18.5736771,12,Map Frame
13,7,2,8.533,18.5240002,13,Map Frame
14,7,2,10.7959166,18.5695744,14,Map Frame
15,8,2,7.3639998,18.4990005,15,Map Frame
16,8,2,8.533,18.5240002,16,Map Frame
17,9,2,6.7030001,18.4850006,17,Map Frame
18,9,2,7.3639998,18.4990005,18,Map Frame
19,10,2,6.4789462,18.4790497,19,Map Frame
20,10,2,6.7030001,18.4850006,20,Map Frame
21,11,2,4.9920001,18.441,21,Map Frame
22,11,2,6.4789462,18.4790497,22,Map Frame
23,12,2,3.3900001,18.3969994,23,Map Frame
24,12,2,4.9920001,18.441,24,Map Frame
26,13,2,9.6827154,18.2092381,25,Castle Street East
25,13,2,10.7959166,18.5695744,26,Castle Street East
27,14,3,17.6599998,18.7119999,27,Map Frame
28,14,3,19.4839993,18.7250004,28,Map Frame
29,14,3,19.5030003,18.1189995,29,Map Frame
31,15,2,8.6569996,18.0890007,30,Market Place
30,15,2,8.533,18.5240002,31,Market Place
33,16,2,5.0978222,18.0533352,32,Margaret Street
32,16,2,6.4789462,18.4790497,33,Margaret Street
34,17,2,4.9920001,18.441,34,Regent Street
35,17,2,5.0978222,18.0533352,35,Regent Street
37,18,2,8.7724485,17.9145889,36,Castle Street East
36,18,2,9.6827154,18.2092381,37,Castle Street East
38,19,2,8.7724485,17.9145889,38,Market Place
39,19,2,8.6569996,18.0890007,39,Market Place
42,20,3,17.4473476,17.9006481,40,Oxford Street
41,20,3,18.7360001,18.0639992,41,Oxford Street
40,20,3,19.5030003,18.1189995,42,Oxford Street
45,21,3,17.4473476,17.9006481,43,Hanway Street
44,21,3,17.5179996,18.4389992,44,Hanway Street
43,21,3,17.6599998,18.7119999,45,Hanway Street
46,22,2,17.1739998,17.8659992,46,Oxford Street
47,22,2,17.4473476,17.9006481,47,Oxford Street
48,23,2,17.1739998,17.8659992,48,Rathbone Place
49,23,2,16.7380009,18.6959991,49,Rathbone Place
51,24,3,7.9260001,17.6700001,50,Market Place
50,24,3,7.882,17.8500004,51,Market Place
52,24,3,8.6569996,18.0890007,52,Market Place
54,25,2,16.1129227,17.645401,53,Oxford Street
53,25,2,17.1739998,17.8659992,54,Oxford Street
57,26,5,16.1129227,17.645401,55,Perrys Place
58,26,5,15.8950005,18.3330002,56,Perrys Place
56,26,5,15.507,18.2420006,57,Perrys Place
55,26,5,15.3870001,18.3390007,58,Perrys Place
59,26,5,15.3170004,18.5170002,59,Perrys Place
61,27,2,3.733,17.6210003,60,Margaret Street
60,27,2,5.0978222,18.0533352,61,Margaret Street
62,28,2,7.6246362,17.5824795,62,Great Castle Street
63,28,2,7.9260001,17.6700001,63,Great Castle Street
65,29,2,7.3639998,18.4990005,64,Margaret Court
64,29,2,7.6246362,17.5824795,65,Margaret Court
67,30,2,3.405966,17.5355129,66,Margaret Street
66,30,2,3.733,17.6210003,67,Margaret Street
68,31,2,3.405966,17.5355129,68,Map Frame
69,31,2,3.3900001,18.3969994,69,Map Frame
71,32,2,15.6000004,17.5249996,70,Oxford Street
70,32,2,16.1129227,17.645401,71,Oxford Street
72,33,2,14.9702625,17.4152355,72,Oxford Street
73,33,2,15.6000004,17.5249996,73,Oxford Street
75,34,2,14.9702625,17.4152355,74,Newman Street
74,34,2,14.4619999,18.6550007,75,Newman Street
77,35,2,6.99401,17.3993397,76,Great Castle Street
76,35,2,7.6246362,17.5824795,77,Great Castle Street
78,36,2,6.99401,17.3993397,78,John Street
79,36,2,6.7030001,18.4850006,79,John Street
80,37,2,19.5030003,18.1189995,80,Map Frame
81,37,2,19.5272503,17.2641487,81,Map Frame
83,38,3,14.1594124,17.2620544,82,Oxford Street
84,38,3,14.783,17.382,83,Oxford Street
82,38,3,14.9702625,17.4152355,84,Oxford Street
86,39,3,8.8240004,17.1959991,85,Market Place
87,39,3,8.8760004,17.3260002,86,Market Place
85,39,3,8.7724485,17.9145889,87,Market Place
89,40,2,19.3530006,17.184,88,Falconberg Court
88,40,2,19.5272503,17.2641487,89,Falconberg Court
92,41,3,18.5079994,17.3279991,90,Falconberg Mews
91,41,3,19.184,17.5620003,91,Falconberg Mews
90,41,3,19.3530006,17.184,92,Falconberg Mews
95,42,3,13.3946438,17.1198883,93,Oxford Street
94,42,3,13.816,17.1959991,94,Oxford Street
93,42,3,14.1594124,17.2620544,95,Oxford Street
96,43,2,13.3946438,17.1198883,96,Berners Street
97,43,2,12.7938805,18.6161308,97,Berners Street
98,44,2,11.5249996,17.0750008,98,Adam and Eve Court
99,44,2,10.971961,18.5736771,99,Adam and Eve Court
100,45,2,8.1929998,17.0149994,100,Market Place
101,45,2,8.8240004,17.1959991,101,Market Place
102,46,2,8.1459999,16.9909992,102,Market Place
103,46,2,8.1929998,17.0149994,103,Market Place
104,47,2,7.9260001,17.6700001,104,Market Place
105,47,2,8.1459999,16.9909992,105,Market Place
107,48,2,5.4027152,16.9372101,106,Great Castle Street
106,48,2,6.99401,17.3993397,107,Great Castle Street
108,49,2,5.0978222,18.0533352,108,Regent Street
109,49,2,5.4027152,16.9372101,109,Regent Street
111,50,3,12.3062029,16.9213066,110,Oxford Street
112,50,3,12.7419996,17.0020008,111,Oxford Street
110,50,3,13.3946438,17.1198883,112,Oxford Street
113,51,2,12.2447538,16.9099293,113,Oxford Street
114,51,2,12.3062029,16.9213066,114,Oxford Street
117,52,3,14.1594124,17.2620544,115,Allens Court
116,52,3,14.3319998,16.4899998,116,Allens Court
115,52,3,14.3889999,16.4990005,117,Allens Court
118,53,2,15.3170004,16.4099998,118,Great Chapel Street
119,53,2,14.9702625,17.4152355,119,Great Chapel Street
121,54,2,15.3889999,16.1200008,120,Titchfield Street
120,54,2,16.0689697,16.4080257,121,Titchfield Street
123,55,2,15.3170004,16.4099998,122,Great Chapel Street
122,55,2,15.3889999,16.1200008,123,Great Chapel Street
126,56,3,14.0244579,15.827219,124,Hollen Street
125,56,3,15.1340361,16.3555603,125,Hollen Street
124,56,3,15.3170004,16.4099998,126,Hollen Street
127,57,2,14.0244579,15.827219,127,Wardour Street
128,57,2,13.3946438,17.1198883,128,Wardour Street
129,58,3,15.3889999,16.1200008,129,Great Chapel Street
130,58,3,15.5100002,15.7519999,130,Great Chapel Street
131,58,3,15.6070004,15.6219997,131,Great Chapel Street
133,59,2,13.5803728,15.6042328,132,Noel Street
132,59,2,14.0244579,15.827219,133,Noel Street
135,60,2,14.4429998,15.0100002,134,Wardour Street
134,60,2,14.0244579,15.827219,135,Wardour Street
137,61,2,12.2447538,16.9099293,136,Wells Street
136,61,2,11.5998764,18.5883083,137,Wells Street
138,62,2,19.5272503,17.2641487,138,Map Frame
139,62,2,19.541317,16.7682648,139,Map Frame
140,63,2,19.3530006,17.184,140,Falconberg Mews
141,63,2,19.541317,16.7682648,141,Falconberg Mews
143,64,2,11.165,16.7099991,142,Oxford Street
142,64,2,12.2447538,16.9099293,143,Oxford Street
145,65,2,3.733,17.6210003,144,Princes Street (I)
144,65,2,4.2443171,16.7018509,145,Princes Street (I)
146,66,2,8.1459999,16.9909992,146,Market Row
147,66,2,7.1856389,16.6844387,147,Market Row
149,67,2,7.1856389,16.6844387,148,John Street
148,67,2,6.99401,17.3993397,149,John Street
151,68,2,10.8289194,16.6464252,150,Oxford Street
150,68,2,11.165,16.7099991,151,Oxford Street
153,69,2,4.2927132,16.6148548,152,Great Castle Street
152,69,2,5.4027152,16.9372101,153,Great Castle Street
154,70,2,4.2443171,16.7018509,154,Princes Street (I)
155,70,2,4.2927132,16.6148548,155,Princes Street (I)
157,71,2,17.1739998,17.8659992,156,Charles Street
156,71,2,17.743,16.5869999,157,Charles Street
158,72,2,10.3191881,16.550005,158,Oxford Street
159,72,2,10.8289194,16.6464252,159,Oxford Street
160,73,2,9.6827154,18.2092381,160,Winsley Street
161,73,2,10.3191881,16.550005,161,Winsley Street
162,74,2,19.541317,16.7682648,162,Map Frame
163,74,2,19.5478706,16.5372238,163,Map Frame
165,75,2,15.6000004,17.5249996,164,Dean Street
164,75,2,16.0689697,16.4080257,165,Dean Street
166,76,2,9.4746075,16.3902454,166,Oxford Street
167,76,2,10.3191881,16.550005,167,Oxford Street
168,77,2,9.3370533,16.9699402,168,Turks Head Yard
169,77,2,9.4746075,16.3902454,169,Turks Head Yard
170,78,2,4.2443171,16.7018509,170,Phoenix Yard
171,78,2,3.4272959,16.3845978,171,Phoenix Yard
172,79,2,3.4272959,16.3845978,172,Map Frame
173,79,2,3.405966,17.5355129,173,Map Frame
174,80,2,9.0890484,16.3173122,174,Oxford Street
175,80,2,9.4746075,16.3902454,175,Oxford Street
177,81,2,9.0301085,16.3061638,176,Oxford Street
176,81,2,9.0890484,16.3173122,177,Oxford Street
178,82,2,8.8240004,17.1959991,178,Market Street (I)
179,82,2,9.0301085,16.3061638,179,Market Street (I)
181,83,2,8.3710003,16.1749992,180,Oxford Street
180,83,2,9.0301085,16.3061638,181,Oxford Street
183,84,2,8.1929998,17.0149994,182,Market Court
182,84,2,8.3710003,16.1749992,183,Market Court
185,85,2,18.7351665,16.1498737,184,Sutton Street
184,85,2,19.5478706,16.5372238,185,Sutton Street
188,86,3,18.7351665,16.1498737,186,Soho Square
187,86,3,18.3939991,16.8759995,187,Soho Square
186,86,3,17.743,16.5869999,188,Soho Square
190,87,2,7.868,16.0779991,189,Oxford Street
189,87,2,8.3710003,16.1749992,190,Oxford Street
191,88,2,3.518651,16.0325737,191,Phoenix Yard
192,88,2,3.944,16.1590004,192,Phoenix Yard
193,89,2,3.4272959,16.3845978,193,Phoenix Yard
194,89,2,3.518651,16.0325737,194,Phoenix Yard
195,90,2,7.375,15.9779997,195,Oxford Street
196,90,2,7.868,16.0779991,196,Oxford Street
197,91,2,7.375,15.9779997,197,John Street
198,91,2,7.1856389,16.6844387,198,John Street
199,92,2,16.0689697,16.4080257,199,Dean Street
200,92,2,16.2697639,15.9297791,200,Dean Street
201,93,2,10.8289194,16.6464252,201,Norris's Place
202,93,2,11.026,15.8590002,202,Norris's Place
204,94,2,6.6325169,15.821804,203,Oxford Street
203,94,2,7.375,15.9779997,204,Oxford Street
206,95,2,5.6999531,15.6256208,205,Oxford Street
205,95,2,6.6325169,15.821804,206,Oxford Street
207,96,2,5.4027152,16.9372101,207,Regent Street
208,96,2,5.6999531,15.6256208,208,Regent Street
210,97,2,15.6070004,15.6219997,209,Crown Court
209,97,2,16.2697639,15.9297791,210,Crown Court
213,98,3,17.743,16.5869999,211,Soho Square
212,98,3,17.0990009,16.2549992,212,Soho Square
211,98,3,17.4214344,15.5421467,213,Soho Square
214,99,2,5.0250001,15.5159998,214,Oxford Street
215,99,2,5.6999531,15.6256208,215,Oxford Street
217,100,2,4.9097862,15.4901791,216,Oxford Street
216,100,2,5.0250001,15.5159998,217,Oxford Street
219,101,2,4.2927132,16.6148548,218,Princes Street (I)
218,101,2,4.9097862,15.4901791,219,Princes Street (I)
221,102,3,18.90695,15.3761148,220,Soho Square
220,102,3,19.0639992,15.4499998,221,Soho Square
222,102,3,18.7351665,16.1498737,222,Soho Square
223,103,2,13.0880003,15.3570004,223,Noel Street
224,103,2,13.5803728,15.6042328,224,Noel Street
226,104,2,12.3062029,16.9213066,225,Berwick Street
225,104,2,13.0880003,15.3570004,226,Berwick Street
227,105,2,15.6070004,15.6219997,227,Great Chapel Street
228,105,2,15.6938972,15.3395834,228,Great Chapel Street
230,106,2,10.2639999,15.6700001,229,Blenheim Mews
229,106,2,9.4910889,15.3207779,230,Blenheim Mews
232,107,2,9.0890484,16.3173122,231,Blenheim Street
231,107,2,9.4910889,15.3207779,232,Blenheim Street
234,108,3,13.5803728,15.6042328,233,Noel Street
235,108,3,13.6700001,15.3889999,234,Noel Street
233,108,3,13.5600004,15.3149996,235,Noel Street
237,109,2,3.721,15.2480001,236,Oxford Street
236,109,2,4.9097862,15.4901791,237,Oxford Street
239,110,2,3.518651,16.0325737,238,Phoenix Yard
238,110,2,3.721,15.2480001,239,Phoenix Yard
241,111,2,16.5881329,15.1714983,240,Carlisle Street
240,111,2,17.4214344,15.5421467,241,Carlisle Street
242,112,2,16.2697639,15.9297791,242,Dean Street
243,112,2,16.5881329,15.1714983,243,Dean Street
244,113,2,3.4498279,15.1688366,244,Oxford Street
245,113,2,3.721,15.2480001,245,Oxford Street
246,114,2,3.4498279,15.1688366,246,Map Frame
247,114,2,3.4272959,16.3845978,247,Map Frame
249,115,2,18.402319,15.1387091,248,Soho Square
248,115,2,18.90695,15.3761148,249,Soho Square
251,116,3,9.0590544,15.1255732,250,Marlborough Mews
250,116,3,9.4910889,15.3207779,251,Marlborough Mews
252,117,2,9.0590544,15.1255732,252,Nags Head Yard
253,117,2,8.7840004,15.7720003,253,Nags Head Yard
255,118,2,13.0880003,15.3570004,254,Noel Street
254,118,2,12.2139997,14.9090004,255,Noel Street
256,119,2,17.8946495,14.8998747,256,Soho Square
257,119,2,18.402319,15.1387091,257,Soho Square
259,120,3,15.6938972,15.3395834,258,Carlisle Street
258,120,3,15.8470001,14.842,259,Carlisle Street
260,120,3,16.5881329,15.1714983,260,Carlisle Street
261,121,3,17.4214344,15.5421467,261,Soho Square
263,121,3,17.7439995,14.8290005,262,Soho Square
262,121,3,17.8946495,14.8998747,263,Soho Square
266,122,3,11.8000002,14.8109999,264,Poland Street
264,122,3,11.4499998,15.6140003,265,Poland Street
265,122,3,11.165,16.7099991,266,Poland Street
268,123,2,14.5469418,14.8062286,267,Little Chapel Street
267,123,2,15.6938972,15.3395834,268,Little Chapel Street
269,124,2,14.4429998,15.0100002,269,Wardour Street
270,124,2,14.5469418,14.8062286,270,Wardour Street
272,125,2,13.9339371,14.7479525,271,Portland Street
271,125,2,14.4429998,15.0100002,272,Portland Street
277,126,4,7.868,16.0779991,273,Queen Street (I)
274,126,4,7.9829998,15.2220001,274,Queen Street (I)
276,126,4,7.9530001,15.1409998,275,Queen Street (I)
275,126,4,8.1569996,14.7180004,276,Queen Street (I)
273,116,3,8.1569996,14.7180004,277,Marlborough Mews
279,127,3,16.5881329,15.1714983,278,Dean Street
280,127,3,16.6529999,15.0170002,279,Dean Street
278,127,3,16.8626099,14.5456047,280,Dean Street
281,128,2,13.5017796,14.5254908,281,Portland Street
282,128,2,13.9339371,14.7479525,282,Portland Street
284,129,2,13.5017796,14.5254908,283,Berwick Street
283,129,2,13.0880003,15.3570004,284,Berwick Street
286,130,3,7.2350001,14.4250002,285,Argyll Street
287,130,3,6.796,15.2969999,286,Argyll Street
285,130,3,6.6325169,15.821804,287,Argyll Street
290,131,3,6.012208,14.371027,288,Regent Street
289,131,3,5.9580002,14.5930004,289,Regent Street
288,131,3,5.6999531,15.6256208,290,Regent Street
291,132,2,5.3569999,14.2150002,291,Princes Street (II)
292,132,2,6.012208,14.371027,292,Princes Street (II)
296,133,4,5.0250001,15.5159998,293,Swallow Place
293,133,4,5.1300001,14.9499998,294,Swallow Place
295,133,4,5.2030001,14.9569998,295,Swallow Place
294,133,4,5.3569999,14.2150002,296,Swallow Place
298,134,2,12.6890001,14.1149998,297,Portland Street
297,134,2,13.5017796,14.5254908,298,Portland Street
299,135,2,10.0377073,14.0517893,299,Great Marlborough Street
300,135,2,11.8000002,14.8109999,300,Great Marlborough Street
301,136,2,9.4910889,15.3207779,301,Blenheim Street
302,136,2,10.0377073,14.0517893,302,Blenheim Street
306,137,4,15.8640003,13.9809999,303,St Anns Court
303,137,4,15.9709997,14.0570002,304,St Anns Court
304,137,4,15.9469995,14.1029997,305,St Anns Court
305,137,4,16.8626099,14.5456047,306,St Anns Court
309,138,3,15.5389996,14.1099997,307,St Anns Place
307,138,3,15.7370005,14.2139997,308,St Anns Place
308,138,3,15.8640003,13.9809999,309,St Anns Place
311,139,2,12.2077274,13.8600874,310,Portland Street
310,139,2,12.6890001,14.1149998,311,Portland Street
313,140,2,11.8000002,14.8109999,312,Poland Street
312,140,2,12.2077274,13.8600874,313,Poland Street
314,141,2,15.573,13.8400002,314,St Anns Court
315,141,2,15.8640003,13.9809999,315,St Anns Court
316,142,2,19.5478706,16.5372238,316,Map Frame
317,142,2,19.6246185,13.831727,317,Map Frame
319,143,2,18.90695,15.3761148,318,Greek Street
318,143,2,19.6246185,13.831727,319,Greek Street
321,144,2,6.1486492,13.812314,320,Little Argyll Street
320,144,2,7.2350001,14.4250002,321,Little Argyll Street
322,145,2,6.1486492,13.812314,322,Regent Street
323,145,2,6.012208,14.371027,323,Regent Street
324,146,2,16.8626099,14.5456047,324,Dean Street
325,146,2,17.1940002,13.8030005,325,Dean Street
327,147,2,19.6246185,13.831727,326,Map Frame
326,147,2,19.6272583,13.7386885,327,Map Frame
328,148,2,11.7840004,13.6350002,328,St James Workhouse
329,148,2,12.2077274,13.8600874,329,St James Workhouse
331,149,2,15.1485777,13.6267643,330,St Anns Court
330,149,2,15.573,13.8400002,331,St Anns Court
333,150,2,14.5469418,14.8062286,332,Wardour Street
332,150,2,15.1485777,13.6267643,333,Wardour Street
335,151,2,8.8964672,13.560133,334,Great Marlborough Street
334,151,2,10.0377073,14.0517893,335,Great Marlborough Street
337,152,2,14.0430002,13.5080004,336,Berwick Street
336,152,2,13.5017796,14.5254908,337,Berwick Street
340,153,3,13.9339371,14.7479525,338,Wardour Mews
338,153,3,14.3240004,14.0170002,339,Wardour Mews
339,153,3,14.5509996,13.5010004,340,Wardour Mews
341,154,2,19.1459999,13.4759998,341,Queen Street (II)
342,154,2,19.6272583,13.7386885,342,Queen Street (II)
344,155,3,18.402319,15.1387091,343,Batemans Buildings
345,155,3,19.0020008,13.7880001,344,Batemans Buildings
343,155,3,19.1459999,13.4759998,345,Batemans Buildings
347,156,2,15.1485777,13.6267643,346,Wardour Street
346,156,2,15.2770004,13.375,347,Wardour Street
348,157,2,18.6650467,13.1906729,348,Queen Street (II)
349,157,2,19.1459999,13.4759998,349,Queen Street (II)
351,158,3,17.8946495,14.8998747,350,Frith Street
350,158,3,18.3610001,13.8669996,351,Frith Street
352,158,3,18.6650467,13.1906729,352,Frith Street
354,159,2,13.3789997,13.1639996,353,Bentinck Street
353,159,2,14.0430002,13.5080004,354,Bentinck Street
357,160,5,12.6890001,14.1149998,355,Portland Mews
355,160,5,12.7819996,13.9359999,356,Portland Mews
358,160,5,12.9420004,13.5970001,357,Portland Mews
359,160,5,13.1029997,13.6750002,358,Portland Mews
356,160,5,13.3789997,13.1639996,359,Portland Mews
361,161,2,7.9123201,13.1361542,360,Argyll Place
360,161,2,8.8964672,13.560133,361,Argyll Place
362,162,2,7.9123201,13.1361542,362,Argyll Street
363,162,2,7.2350001,14.4250002,363,Argyll Street
365,163,3,15.573,13.8400002,364,Ship Yard
366,163,3,15.8190002,13.3219995,365,Ship Yard
364,163,3,15.4565592,13.1309834,366,Ship Yard
367,164,2,15.2770004,13.375,367,Wardour Street
368,164,2,15.4565592,13.1309834,368,Wardour Street
369,165,2,14.8091011,13.106781,369,Edward Street
370,165,2,15.2770004,13.375,370,Edward Street
372,166,3,6.4696321,13.0269709,371,Regent Street
373,166,3,6.2319999,13.4709997,372,Regent Street
371,166,3,6.1486492,13.812314,373,Regent Street
375,167,2,13.3789997,13.1639996,374,Bentinck Street
374,167,2,13.085,13.0030003,375,Bentinck Street
377,168,2,14.3639154,12.8515816,376,Edward Street
376,168,2,14.8091011,13.106781,377,Edward Street
379,169,2,14.3639154,12.8515816,378,Berwick Street
378,169,2,14.0430002,13.5080004,379,Berwick Street
380,170,2,8.8964672,13.560133,380,Carnaby Street
381,170,2,8.9386053,12.83183,381,Carnaby Street
383,171,2,14.4169998,12.743,382,Berwick Street
382,171,2,14.3639154,12.8515816,383,Berwick Street
384,172,2,7.2081971,12.7395391,384,Argyll Place
385,172,2,7.9123201,13.1361542,385,Argyll Place
387,173,2,18.6650467,13.1906729,386,Queen Street (II)
386,173,2,17.7065144,12.6450005,387,Queen Street (II)
389,174,3,17.1940002,13.8030005,388,Dean Street
388,174,3,17.5769997,12.9390001,389,Dean Street
390,174,3,17.7065144,12.6450005,390,Dean Street
392,175,2,5.1874361,12.6099167,391,Hanover Street
391,175,2,6.4696321,13.0269709,392,Hanover Street
394,176,2,6.7588978,12.4864607,393,Argyll Place
393,176,2,7.2081971,12.7395391,394,Argyll Place
395,177,2,6.7588978,12.4864607,395,Regent Street
396,177,2,6.4696321,13.0269709,396,Regent Street
398,178,2,13.9110003,12.4790001,397,Broad Street
397,178,2,14.4169998,12.743,398,Broad Street
399,179,2,7.4172621,12.4762888,399,Green Dragon Yard
400,179,2,7.8506641,12.7446699,400,Green Dragon Yard
402,180,2,7.4172621,12.4762888,401,King Street (I)
401,180,2,7.2081971,12.7395391,402,King Street (I)
404,181,2,9.0972004,12.3850803,403,Tyler Court
403,181,2,9.5534487,12.7267799,404,Tyler Court
406,182,3,8.9386053,12.83183,405,Carnaby Street
405,182,3,8.9244738,12.6359501,406,Carnaby Street
407,182,3,9.0972004,12.3850803,407,Carnaby Street
408,183,2,4.25,12.3050003,408,Hanover Street
409,183,2,5.1874361,12.6099167,409,Hanover Street
411,184,3,5.3569999,14.2150002,410,Princes Street/Hanover Square
410,184,3,3.7690001,13.7049999,411,Princes Street/Hanover Square
412,184,3,4.25,12.3050003,412,Princes Street/Hanover Square
413,185,2,9.5534487,12.7267799,413,West Street
414,185,2,9.8582888,12.2909603,414,West Street
415,186,2,14.4169998,12.743,415,Berwick Street
416,186,2,14.7060003,12.25,416,Berwick Street
417,187,2,13.3966837,12.2042065,417,Broad Street
418,187,2,13.9110003,12.4790001,418,Broad Street
420,188,2,15.4565592,13.1309834,419,Wardour Street
419,188,2,15.8772621,12.1351805,420,Wardour Street
422,189,5,16.9419994,12.118,421,Richmond Buildings/Mews
423,189,5,16.4899998,13.0159998,422,Richmond Buildings/Mews
425,189,5,16.4360008,13.0240002,423,Richmond Buildings/Mews
424,189,5,16.2709999,13.4049997,424,Richmond Buildings/Mews
421,189,5,17.1940002,13.8030005,425,Richmond Buildings/Mews
427,190,2,8.9386053,12.83183,426,Little Marlborough Street
426,190,2,7.75176,12.0550976,427,Little Marlborough Street
429,191,2,7.75176,12.0550976,428,King Street (I)
428,191,2,7.4172621,12.4762888,429,King Street (I)
431,192,2,17.7065144,12.6450005,430,Dean Street
430,192,2,17.9696884,12.0475893,431,Dean Street
432,193,2,13.007,11.9960003,432,Broad Street
433,193,2,13.3966837,12.2042065,433,Broad Street
434,194,2,12.2077274,13.8600874,434,Poland Street
435,194,2,13.007,11.9960003,435,Poland Street
437,195,2,9.8582888,12.2909603,436,West Street
436,195,2,10.0545797,11.9907026,437,West Street
439,196,2,14.191,11.9700003,438,Kemps Court
438,196,2,14.7060003,12.25,439,Kemps Court
441,197,2,13.9110003,12.4790001,440,Hopkins Street
440,197,2,14.191,11.9700003,441,Hopkins Street
444,198,6,14.8091011,13.106781,442,Duck Lane/Ham Square
446,198,6,15.2749996,12.1000004,443,Duck Lane/Ham Square
443,198,6,15.3269997,12.0159998,444,Duck Lane/Ham Square
442,198,6,15.4750004,12.0500002,445,Duck Lane/Ham Square
447,198,6,15.5220003,11.9530001,446,Duck Lane/Ham Square
445,198,6,15.8772621,12.1351805,447,Duck Lane/Ham Square
449,199,2,9.3767023,11.9452953,448,Lowndes Court
448,199,2,9.8582888,12.2909603,449,Lowndes Court
450,200,2,9.0972004,12.3850803,450,Carnaby Street
451,200,2,9.3767023,11.9452953,451,Carnaby Street
454,201,3,9.5534487,12.7267799,452,Marshall Street
452,201,3,10.3647604,12.9749203,453,Marshall Street
453,201,3,10.8373804,11.9244013,454,Marshall Street
455,202,2,9.3767023,11.9452953,455,Carnaby Street
456,202,2,9.4359465,11.8520765,456,Carnaby Street
457,203,2,13.007,11.9960003,457,Broad Street
458,203,2,12.6529999,11.8380003,458,Broad Street
459,204,2,15.8772621,12.1351805,459,Wardour Street
460,204,2,16.0639992,11.717,460,Wardour Street
462,205,2,19.6272583,13.7386885,461,Map Frame
461,205,2,19.6851063,11.6994572,462,Map Frame
463,206,2,10.0545797,11.9907026,463,Marlborough Court
464,206,2,9.5583115,11.6595411,464,Marlborough Court
466,207,2,9.4359465,11.8520765,465,Carnaby Street
465,207,2,9.5583115,11.6595411,466,Carnaby Street
468,208,2,8.0833921,11.63976,467,Tyler Street
467,208,2,9.0972004,12.3850803,468,Tyler Street
469,209,2,8.0833921,11.63976,469,King Street (I)
470,209,2,7.75176,12.0550976,470,King Street (I)
472,210,2,17.9696884,12.0475893,471,Dean Street
471,210,2,18.1510162,11.635972,472,Dean Street
474,211,2,10.3213997,11.5825596,473,South Row
473,211,2,10.8373804,11.9244013,474,South Row
475,212,2,10.0545797,11.9907026,475,West Street
476,212,2,10.3213997,11.5825596,476,West Street
477,213,2,19.4159222,11.538805,477,Old Compton Street
478,213,2,19.6851063,11.6994572,478,Old Compton Street
481,214,3,18.6650467,13.1906729,479,Frith Street
479,214,3,18.9669991,12.5190001,480,Frith Street
480,214,3,19.4159222,11.538805,481,Frith Street
483,215,2,14.191,11.9700003,482,Hopkins Street
482,215,2,14.4169998,11.5360003,483,Hopkins Street
484,216,2,12.6529999,11.8380003,484,Broad Street
485,216,2,12.0319996,11.5349998,485,Broad Street
487,217,3,12.0319996,11.5349998,486,Dufours Place
486,217,3,11.5889997,12.4829998,487,Dufours Place
488,217,3,11.8050003,12.6129999,488,Dufours Place
491,218,4,9.4359465,11.8520765,489,Pews Place
489,218,4,9.2075806,11.6911201,490,Pews Place
490,218,4,9.0829287,11.6607199,491,Pews Place
492,218,4,8.7513046,11.3954697,492,Pews Place
493,219,2,5.8659868,11.3281698,493,Maddox Street
494,219,2,6.7588978,12.4864607,494,Maddox Street
497,220,3,5.1874361,12.6099167,495,Pollen Street
495,220,3,5.4560661,11.6361103,496,Pollen Street
496,220,3,5.8659868,11.3281698,497,Pollen Street
500,221,4,15.2513304,11.3118668,498,Tylers Court
498,221,4,15.6370001,11.5179996,499,Tylers Court
499,221,4,15.8070002,11.6070004,500,Tylers Court
501,221,4,16.0639992,11.717,501,Tylers Court
502,222,2,14.7060003,12.25,502,Berwick Street
503,222,2,15.2513304,11.3118668,503,Berwick Street
505,223,2,7.3959999,11.2959995,504,Regent Street
504,223,2,6.7588978,12.4864607,505,Regent Street
507,224,2,13.8603544,11.2842188,506,New Street
506,224,2,13.3966837,12.2042065,507,New Street
509,225,2,14.4169998,11.5360003,508,Cock Court
508,225,2,13.8927059,11.2200298,509,Cock Court
511,226,2,13.8927059,11.2200298,510,New Street
510,226,2,13.8603544,11.2842188,511,New Street
513,227,2,9.8386745,11.2184,512,Cross Street
512,227,2,10.3213997,11.5825596,513,Cross Street
514,228,2,9.5583115,11.6595411,514,Carnaby Street
515,228,2,9.8386745,11.2184,515,Carnaby Street
516,229,2,7.4589009,11.1870003,516,Fouberts Place
517,229,2,8.0833921,11.63976,517,Fouberts Place
518,230,2,7.3959999,11.2959995,518,Regent Street
519,230,2,7.4589009,11.1870003,519,Regent Street
521,231,2,15.2513304,11.3118668,520,Berwick Street
520,231,2,15.3559999,11.1470003,521,Berwick Street
523,232,6,16.3017616,11.123909,522,Meards Court/Street
522,232,6,16.8250008,11.4949999,523,Meards Court/Street
527,232,6,17.1439991,11.71,524,Meards Court/Street
526,232,6,17.3999996,11.8079996,525,Meards Court/Street
525,232,6,17.4720001,11.8070002,526,Meards Court/Street
524,232,6,17.9696884,12.0475893,527,Meards Court/Street
529,233,3,16.0639992,11.717,528,Wardour Street
528,233,3,16.2770004,11.1890001,529,Wardour Street
530,233,3,16.3017616,11.123909,530,Wardour Street
531,234,2,12.0319996,11.5349998,531,Broad Street
532,234,2,11.2035303,11.1105404,532,Broad Street
534,235,2,10.8373804,11.9244013,533,Marshall Street
533,235,2,11.2035303,11.1105404,534,Marshall Street
535,236,2,15.4517279,10.9671221,535,Black Lion Court
536,236,2,15.8360004,11.243,536,Black Lion Court
538,237,2,15.3559999,11.1470003,537,Berwick Street
537,237,2,15.4517279,10.9671221,538,Berwick Street
540,238,3,18.459528,10.9356441,539,Old Compton Street
539,238,3,18.8080006,11.1540003,540,Old Compton Street
541,238,3,19.4159222,11.538805,541,Old Compton Street
542,239,2,18.1510162,11.635972,542,Dean Street
543,239,2,18.459528,10.9356441,543,Dean Street
544,240,2,19.6851063,11.6994572,544,Map Frame
545,240,2,19.707737,10.9016447,545,Map Frame
546,241,2,19.4159222,11.538805,546,Frith Street
547,241,2,19.707737,10.9016447,547,Frith Street
549,242,2,13.1271353,10.8527298,548,Pulteney Court (I)
548,242,2,13.8603544,11.2842188,549,Pulteney Court (I)
552,243,4,12.6529999,11.8380003,550,Cambridge Street
553,243,4,12.7919998,11.5120001,551,Cambridge Street
551,243,4,13.0740004,10.9589996,552,Cambridge Street
550,243,4,13.1271353,10.8527298,553,Cambridge Street
555,244,2,15.3559999,11.1470003,554,Maidenhead Court
554,244,2,14.8257446,10.850667,555,Maidenhead Court
558,245,3,14.4169998,11.5360003,556,Hopkins Street
556,245,3,14.6879997,11.0889997,557,Hopkins Street
557,245,3,14.8257446,10.850667,558,Hopkins Street
560,246,2,9.3511257,10.8246183,559,Cross Street
559,246,2,9.8386745,11.2184,560,Cross Street
561,247,2,9.3511257,10.8246183,561,George Place (?)
562,247,2,9.0457125,11.2711496,562,George Place (?)
563,248,2,19.707737,10.9016447,563,Map Frame
564,248,2,19.7100048,10.8217096,564,Map Frame
565,249,2,10.3213997,11.5825596,565,Marlborough Row
566,249,2,10.77036,10.7723598,566,Marlborough Row
567,250,2,5.3715849,10.6868267,567,Maddox Street
568,250,2,5.8659868,11.3281698,568,Maddox Street
569,251,3,4.9313369,11.5090504,569,Masons Arms Yard
571,251,3,5.0630178,10.8767004,570,Masons Arms Yard
570,251,3,5.3715849,10.6868267,571,Masons Arms Yard
572,252,2,15.6397247,10.6454229,572,Peter Street
573,252,2,16.3017616,11.123909,573,Peter Street
575,253,2,15.4517279,10.9671221,574,Berwick Street
574,253,2,15.6397247,10.6454229,575,Berwick Street
577,254,2,15.6397247,10.6454229,576,Peter Street
576,254,2,15.5965776,10.6166334,577,Peter Street
579,255,2,10.77036,10.7723598,578,Marlborough Row
578,255,2,10.8647203,10.5992098,579,Marlborough Row
580,256,2,12.6410398,10.5644312,580,Silver Street
581,256,2,13.1271353,10.8527298,581,Silver Street
583,257,2,8.9821606,10.5338202,582,Cross Street
582,257,2,9.3511257,10.8246183,583,Cross Street
585,258,2,8.0833921,11.63976,584,King Street (I)
584,258,2,8.9821606,10.5338202,585,King Street (I)
587,259,3,14.8257446,10.850667,586,New Street/Husband Street
588,259,3,14.243,10.5249996,587,New Street/Husband Street
586,259,3,13.8927059,11.2200298,588,New Street/Husband Street
589,260,2,10.3505497,10.4686728,589,Carnaby Court
590,260,2,10.77036,10.7723598,590,Carnaby Court
592,261,2,9.8386745,11.2184,591,Carnaby Street
591,261,2,10.3505497,10.4686728,592,Carnaby Street
593,262,2,12.4594259,10.4567184,593,Silver Street
594,262,2,12.6410398,10.5644312,594,Silver Street
596,263,2,12.2512302,10.8542404,595,Tent Court
595,263,2,12.4594259,10.4567184,596,Tent Court
597,264,2,15.1669998,10.3299999,597,Peter Street
598,264,2,15.5965776,10.6166334,598,Peter Street
599,265,3,14.8257446,10.850667,599,Hopkins Street
600,265,3,14.9709997,10.5930004,600,Hopkins Street
601,265,3,15.1669998,10.3299999,601,Hopkins Street
602,266,2,5.0901632,10.321764,602,Maddox Street
603,266,2,5.3715849,10.6868267,603,Maddox Street
606,267,7,16.6480007,10.2989998,604,Little Dean Street
607,267,7,16.9279995,10.552,605,Little Dean Street
605,267,7,17.1100006,10.6969995,606,Little Dean Street
610,267,7,17.2689991,10.8730001,607,Little Dean Street
609,267,7,17.4500008,11.1090002,608,Little Dean Street
608,267,7,17.8279991,11.3900003,609,Little Dean Street
604,267,7,18.1510162,11.635972,610,Little Dean Street
611,268,3,16.3017616,11.123909,611,Wardour Street
612,268,3,16.4440002,10.75,612,Wardour Street
613,268,3,16.6480007,10.2989998,613,Wardour Street
615,269,2,15.1669998,10.3299999,614,Peter Street
614,269,2,15.0657091,10.2674713,615,Peter Street
617,270,2,12.1054001,10.2467499,616,Silver Street
616,270,2,12.4594259,10.4567184,617,Silver Street
619,271,2,18.7706013,10.2303782,618,Church Street
618,271,2,19.7100048,10.8217096,619,Church Street
621,272,3,18.459528,10.9356441,620,Dean Street
620,272,3,18.5510006,10.7279997,621,Dean Street
622,272,3,18.7706013,10.2303782,622,Dean Street
623,273,3,5.0901632,10.321764,623,Maddox Street
624,273,3,5.0691819,10.41014,624,Maddox Street
625,273,3,4.3077641,10.2040005,625,Maddox Street
626,274,3,4.3077641,10.2040005,626,George Street
628,274,3,3.743839,12.0125303,627,George Street
627,274,3,4.25,12.3050003,628,George Street
629,275,2,11.8282614,10.0615549,629,Silver Street
630,275,2,12.1054001,10.2467499,630,Silver Street
633,276,3,11.2035303,11.1105404,631,Marshall Street
631,276,3,11.5598402,10.4594402,632,Marshall Street
632,276,3,11.8282614,10.0615549,633,Marshall Street
634,277,2,15.0657091,10.2674713,634,Greens Court
635,277,2,15.2250004,10.059,635,Greens Court
636,278,2,16.6480007,10.2989998,636,Wardour Street
637,278,2,16.9459991,10.0389996,637,Wardour Street
639,279,2,7.4589009,11.1870003,638,Regent Street
638,279,2,8.1350374,10.0153532,639,Regent Street
640,280,2,19.7100048,10.8217096,640,Map Frame
641,280,2,19.7342319,9.967659,641,Map Frame
645,281,4,17.0279999,9.9549999,642,Old Compton Street
644,281,4,17.2290001,10.125,643,Old Compton Street
643,281,4,17.6429996,10.4239998,644,Old Compton Street
642,281,4,18.459528,10.9356441,645,Old Compton Street
646,282,2,16.9459991,10.0389996,646,Wardour Street
647,282,2,17.0279999,9.9549999,647,Wardour Street
648,283,2,15.0657091,10.2674713,648,Peter Street
649,283,2,14.5319996,9.9379997,649,Peter Street
650,284,2,4.3077641,10.2040005,650,Maddox Street
651,284,2,3.547796,9.882741,651,Maddox Street
653,285,2,3.547796,9.882741,652,Map Frame
652,285,2,3.4498279,15.1688366,653,Map Frame
654,286,2,16.0209999,9.8280001,654,Little Pulteney Street
655,286,2,16.6480007,10.2989998,655,Little Pulteney Street
657,287,2,15.5965776,10.6166334,656,Walkers Court
656,287,2,16.0209999,9.8280001,657,Walkers Court
659,288,2,8.9821606,10.5338202,658,King Street (I)
658,288,2,9.5630398,9.8128672,659,King Street (I)
661,289,2,11.8282614,10.0615549,660,Silver Street
660,289,2,11.48915,9.810339,661,Silver Street
662,290,2,15.2250004,10.059,662,Pulteney Court (II)
663,290,2,14.8459997,9.7840004,663,Pulteney Court (II)
664,291,2,17.0279999,9.9549999,664,Wardour Street
665,291,2,17.2169991,9.7259998,665,Wardour Street
666,292,2,15.7853088,9.6567307,666,Little Pulteney Street
667,292,2,16.0209999,9.8280001,667,Little Pulteney Street
669,293,2,15.7853088,9.6567307,668,Unknown-B
668,293,2,15.5459995,10.0270004,669,Unknown-B
670,294,2,19.0654373,9.562274,670,King Street (II)
671,294,2,19.7342319,9.967659,671,King Street (II)
672,295,2,18.7706013,10.2303782,672,Dean Street
673,295,2,19.0654373,9.562274,673,Dean Street
674,296,3,15.6025696,9.5083771,674,Little Pulteney Street
675,296,3,15.7209997,9.6099997,675,Little Pulteney Street
676,296,3,15.7853088,9.6567307,676,Little Pulteney Street
678,297,2,15.2250004,10.059,677,Greens Court
677,297,2,15.6025696,9.5083771,678,Greens Court
680,298,2,6.0532022,9.4900789,679,Conduit Street
679,298,2,7.3959999,11.2959995,680,Conduit Street
684,299,4,6.0532022,9.4900789,681,Mill Street
683,299,4,5.2596159,10.0978498,682,Mill Street
682,299,4,5.1050048,10.2592497,683,Mill Street
681,299,4,5.0901632,10.321764,684,Mill Street
686,300,2,11.48915,9.810339,685,Silver Street
685,300,2,11.0319405,9.4706602,686,Silver Street
688,301,2,10.3505497,10.4686728,687,Carnaby Street
687,301,2,11.0319405,9.4706602,688,Carnaby Street
689,302,2,16.3169994,9.4689999,689,Little Crown Court
690,302,2,16.9459991,10.0389996,690,Little Crown Court
691,303,2,16.0209999,9.8280001,691,Great Crown Court
692,303,2,16.3169994,9.4689999,692,Great Crown Court
694,304,2,15.3622665,9.3021784,693,Little Pulteney Street
693,304,2,15.6025696,9.5083771,694,Little Pulteney Street
696,305,2,8.1350374,10.0153532,695,Old Burlington Mews
695,305,2,6.772264,9.1731348,696,Old Burlington Mews
698,306,2,8.6268063,9.163188,697,Chapel Place
697,306,2,9.5630398,9.8128672,698,Chapel Place
700,307,2,8.1350374,10.0153532,699,Regent Street
699,307,2,8.6268063,9.163188,700,Regent Street
701,308,2,11.0319405,9.4706602,701,Silver Street
702,308,2,10.6160746,9.1589956,702,Silver Street
704,309,2,10.6160746,9.1589956,703,Naylors Yard
703,309,2,9.6626434,10.4113703,704,Naylors Yard
705,310,2,19.0654373,9.562274,705,Macclesfield Street
706,310,2,19.3062916,9.090313,706,Macclesfield Street
707,311,2,17.2169991,9.7259998,707,Upper Rupert Street
708,311,2,16.552,9.0880003,708,Upper Rupert Street
710,312,2,16.4120007,9.2849998,709,Rupert Street
709,312,2,16.552,9.0880003,710,Rupert Street
712,313,2,8.6268063,9.163188,711,Regent Street
711,313,2,8.7021122,9.0623713,712,Regent Street
714,314,2,6.544517,9.0438137,713,Mill Street
713,314,2,6.0532022,9.4900789,714,Mill Street
715,315,2,12.0264416,9.0231791,715,Upper James Street
716,315,2,11.48915,9.810339,716,Upper James Street
718,316,3,14.9926939,8.9881172,717,Little Pulteney Street
719,316,3,15.2629995,9.217,718,Little Pulteney Street
717,316,3,15.3622665,9.3021784,719,Little Pulteney Street
721,317,4,14.9926939,8.9881172,720,William and Mary Yard
720,317,4,14.6780005,9.3800001,721,William and Mary Yard
722,317,4,14.4619999,9.6459999,722,William and Mary Yard
723,317,4,14.0200005,10.4259996,723,William and Mary Yard
725,318,2,10.6160746,9.1589956,724,Silver Street
724,318,2,10.287982,8.9131107,725,Silver Street
727,319,2,9.5630398,9.8128672,726,King Street (I)
726,319,2,10.287982,8.9131107,727,King Street (I)
728,320,2,16.3169994,9.4689999,728,Great Crown Court
729,320,2,15.7329998,8.8850002,729,Great Crown Court
731,321,2,15.7329998,8.8850002,730,Great Crown Court
730,321,2,15.3622665,9.3021784,731,Great Crown Court
732,322,3,14.7312241,8.7499294,732,Little Pulteney Street
733,322,3,14.8780003,8.8909998,733,Little Pulteney Street
734,322,3,14.9926939,8.9881172,734,Little Pulteney Street
735,323,2,19.0654373,9.562274,735,King Street (II)
736,323,2,17.9060001,8.7220001,736,King Street (II)
738,324,2,17.2169991,9.7259998,737,Wardour Street
737,324,2,17.9060001,8.7220001,738,Wardour Street
740,325,2,14.6852283,8.7057219,739,Little Pulteney Street
739,325,2,14.7312241,8.7499294,740,Little Pulteney Street
745,326,5,13.1271353,10.8527298,741,Little Windmill Street
742,326,5,13.1599998,10.7869997,742,Little Windmill Street
743,326,5,13.7889996,9.8599997,743,Little Windmill Street
741,326,5,14.2889996,9.1920004,744,Little Windmill Street
744,326,5,14.6852283,8.7057219,745,Little Windmill Street
746,327,2,16.552,9.0880003,746,Rupert Street
747,327,2,16.758667,8.6988859,747,Rupert Street
749,328,2,10.287982,8.9131107,748,Silver Street
748,328,2,9.8828268,8.5975475,749,Silver Street
750,329,2,16.758667,8.6988859,750,Rupert Street
751,329,2,16.8862286,8.4587135,751,Rupert Street
753,330,2,11.1494913,8.3766632,752,Golden Square
752,330,2,12.0264416,9.0231791,753,Golden Square
754,331,2,11.1494913,8.3766632,754,Upper John Street
755,331,2,10.6160746,9.1589956,755,Upper John Street
758,332,6,15.7329998,8.8850002,756,Queens Head Court
760,332,6,15.6820002,8.79,757,Queens Head Court
759,332,6,15.6420002,8.7530003,758,Queens Head Court
761,332,6,15.493,8.6420002,759,Queens Head Court
756,332,6,15.3889999,8.5430002,760,Queens Head Court
757,332,6,15.1099997,8.3179998,761,Queens Head Court
763,333,2,14.7312241,8.7499294,762,Great Windmill Street
762,333,2,15.1099997,8.3179998,763,Great Windmill Street
768,334,5,18.1122017,8.2802267,764,George Yard
764,334,5,18.4090004,8.4799995,765,George Yard
765,334,5,18.6949997,8.6920004,766,George Yard
766,334,5,18.8999996,8.842,767,George Yard
767,334,5,19.3062916,9.090313,768,George Yard
769,335,2,17.9060001,8.7220001,769,Princes Street (III)
770,335,2,18.1122017,8.2802267,770,Princes Street (III)
772,336,3,9.8828268,8.5975475,771,Beak Street
773,336,3,9.725832,8.4752684,772,Beak Street
771,336,3,9.1636944,8.2275248,773,Beak Street
774,337,3,8.7021122,9.0623713,774,Regent Street
776,337,3,9.0671844,8.4000759,775,Regent Street
775,337,3,9.1636944,8.2275248,776,Regent Street
778,338,2,16.8862286,8.4587135,777,Plough Yard
777,338,2,16.5030003,8.2040005,778,Plough Yard
780,339,2,15.1099997,8.3179998,779,Great Windmill Street
779,339,2,15.2008905,8.2018261,780,Great Windmill Street
781,340,3,14.137084,8.1869307,781,Brewer Street
783,340,3,14.415,8.4460001,782,Brewer Street
782,340,3,14.6852283,8.7057219,783,Brewer Street
785,341,4,12.6410398,10.5644312,784,Great Pulteney Street
787,341,4,13.3952198,9.188612,785,Great Pulteney Street
784,341,4,13.78479,8.644908,786,Great Pulteney Street
786,341,4,14.137084,8.1869307,787,Great Pulteney Street
789,342,2,12.6530275,8.105197,788,Golden Square
788,342,2,12.0264416,9.0231791,789,Golden Square
791,343,2,5.0223222,8.1036558,790,Conduit Street
790,343,2,6.0532022,9.4900789,791,Conduit Street
792,344,2,5.0223222,8.1036558,792,George Street
793,344,2,4.3077641,10.2040005,793,George Street
795,345,2,17.0809994,8.092,794,Richmond Street
794,345,2,17.9060001,8.7220001,795,Richmond Street
796,346,2,16.8862286,8.4587135,796,Rupert Street
797,346,2,17.0809994,8.092,797,Rupert Street
798,347,2,9.1636944,8.2275248,798,Regent Street
799,347,2,9.2483673,8.087018,799,Regent Street
800,348,2,3.5814071,8.0692205,800,Map Frame
801,348,2,3.547796,9.882741,801,Map Frame
803,349,2,7.043314,7.9979448,802,New Burlington Street
802,349,2,8.7021122,9.0623713,803,New Burlington Street
804,350,2,9.0185366,7.9805012,804,New Burlington Mews
805,350,2,9.2483673,8.087018,805,New Burlington Mews
806,351,2,9.2483673,8.087018,806,Regent Street
807,351,2,9.3637047,7.8798819,807,Regent Street
808,352,3,18.327755,7.818418,808,Macclesfield Street/Gerrard Street
809,352,3,19.5550003,8.6099997,809,Macclesfield Street/Gerrard Street
810,352,3,19.3062916,9.090313,810,Macclesfield Street/Gerrard Street
811,353,2,18.1122017,8.2802267,811,Princes Street (III)
812,353,2,18.327755,7.818418,812,Princes Street (III)
814,354,3,7.043314,7.9979448,813,Boyle Street
813,354,3,6.8860431,8.2609034,814,Boyle Street
815,354,3,6.1852441,7.7992458,815,Boyle Street
817,355,2,15.5270004,7.7849998,816,Archer Street
816,355,2,16.758667,8.6988859,817,Archer Street
819,356,2,15.2008905,8.2018261,818,Great Windmill Street
818,356,2,15.5270004,7.7849998,819,Great Windmill Street
820,357,2,13.6739378,7.7551918,820,Brewer Street
821,357,2,14.137084,8.1869307,821,Brewer Street
822,358,3,12.1054001,10.2467499,822,Bridle Street
824,358,3,12.7395,9.0152683,823,Bridle Street
823,358,3,13.6739378,7.7551918,824,Bridle Street
826,359,2,15.5270004,7.7849998,825,Great Windmill Street
825,359,2,15.5609999,7.744,826,Great Windmill Street
827,360,2,19.7342319,9.967659,827,Map Frame
828,360,2,19.7973919,7.7411528,828,Map Frame
830,361,3,15.3190002,7.527,829,Ham Yard
831,361,3,15.2740002,7.579,830,Ham Yard
829,361,3,15.5609999,7.744,831,Ham Yard
833,362,2,8.2065783,7.5214062,832,New Burlington Mews
832,362,2,9.0185366,7.9805012,833,New Burlington Mews
836,363,4,14.165,7.5149999,834,Smiths Court/Yard
835,363,4,14.4250002,7.8000002,835,Smiths Court/Yard
837,363,4,14.5600004,7.6550002,836,Smiths Court/Yard
834,363,4,15.2008905,8.2018261,837,Smiths Court/Yard
839,364,2,14.9619999,7.507,838,Ham Yard
838,364,2,15.2639999,7.7610002,839,Ham Yard
840,365,3,15.0950003,7.9120002,840,Ham Yard
842,365,3,14.835,7.6529999,841,Ham Yard
841,365,3,14.9619999,7.507,842,Ham Yard
843,366,2,18.327755,7.818418,843,Princes Street (III)
844,366,2,18.5060005,7.4720001,844,Princes Street (III)
846,367,2,8.5915565,7.4712501,845,Heddon Court
845,367,2,9.3637047,7.8798819,846,Heddon Court
847,368,2,11.7894554,7.4380651,847,Golden Square
848,368,2,12.6530275,8.105197,848,Golden Square
850,369,2,11.7894554,7.4380651,849,Golden Square
849,369,2,11.1494913,8.3766632,850,Golden Square
852,370,2,19.2955208,7.436564,851,Lisle Street
851,370,2,19.7973919,7.7411528,852,Lisle Street
854,371,2,9.8828268,8.5975475,853,Warwick Street
853,371,2,10.6393805,7.406045,854,Warwick Street
855,372,2,15.1020002,7.3280001,855,Ham Yard
856,372,2,15.3190002,7.527,856,Ham Yard
857,373,2,14.9619999,7.507,857,Ham Yard
858,373,2,15.1020002,7.3280001,858,Ham Yard
861,374,3,13.1941566,7.3124142,859,Brewer Street
859,374,3,13.4860001,7.5799999,860,Brewer Street
860,374,3,13.6739378,7.7551918,861,Brewer Street
863,375,2,13.1941566,7.3124142,862,Lower James Street
862,375,2,12.6530275,8.105197,863,Lower James Street
864,376,2,15.3190002,7.527,864,Ham Yard
865,376,2,15.4960003,7.3119998,865,Ham Yard
866,377,2,8.2383413,7.2254648,866,Heddon Court
867,377,2,8.5915565,7.4712501,867,Heddon Court
869,378,2,12.0388098,7.0882711,868,Lower John Street
868,378,2,11.7894554,7.4380651,869,Lower John Street
870,379,2,17.5764389,7.0717092,870,George Court (II)
871,379,2,18.5060005,7.4720001,871,George Court (II)
872,380,3,17.0809994,8.092,872,Rupert Street
874,380,3,17.3710003,7.4679999,873,Rupert Street
873,380,3,17.5764389,7.0717092,874,Rupert Street
875,381,2,4.2529998,7.0689998,875,Conduit Street
876,381,2,5.0223222,8.1036558,876,Conduit Street
878,382,2,4.2529998,7.0689998,877,New Bond Street
877,382,2,3.5814071,8.0692205,878,New Bond Street
880,383,2,18.680275,7.0631671,879,Lisle Street
879,383,2,19.2955208,7.436564,880,Lisle Street
881,384,2,18.5060005,7.4720001,881,Princes Street (III)
882,384,2,18.680275,7.0631671,882,Princes Street (III)
884,385,6,6.1852441,7.7992458,883,Coach & Horses Yard
888,385,6,5.66609,7.4148331,884,Coach & Horses Yard
887,385,6,5.5974889,7.33921,885,Coach & Horses Yard
886,385,6,5.6095219,7.2458701,886,Coach & Horses Yard
885,385,6,5.5875592,7.2002902,887,Coach & Horses Yard
883,385,6,5.360157,7.0399351,888,Coach & Horses Yard
889,386,3,15.5609999,7.744,889,Great Windmill Street
891,386,3,15.6999998,7.3940001,890,Great Windmill Street
890,386,3,15.8640003,7.007,891,Great Windmill Street
893,387,2,10.6393805,7.406045,892,Leicester Street (I)
892,387,2,9.8741417,6.9631839,893,Leicester Street (I)
894,388,2,9.3637047,7.8798819,894,Regent Street
895,388,2,9.8741417,6.9631839,895,Regent Street
897,389,2,6.7296228,6.96101,896,Old Burlington Street
896,389,2,6.1852441,7.7992458,897,Old Burlington Street
898,390,3,15.8640003,7.007,898,Bull Yard
900,390,3,15.4460001,6.927,899,Bull Yard
899,390,3,15.3170004,7.1020002,900,Bull Yard
901,391,2,13.5439301,6.8594022,901,Orchard Place
902,391,2,13.9350004,7.1890001,902,Orchard Place
904,392,2,13.5439301,6.8594022,903,Sherrard Street
903,392,2,13.1941566,7.3124142,904,Sherrard Street
907,393,3,11.5326204,6.9868431,905,Golden Place
906,393,3,11.6609097,6.809978,906,Golden Place
905,393,3,12.0388098,7.0882711,907,Golden Place
909,394,3,15.9359312,6.7816591,908,Catherine Wheel Yard
908,394,3,16.3010006,7.006,909,Catherine Wheel Yard
910,394,3,16.8220005,7.3249998,910,Catherine Wheel Yard
911,395,2,15.8640003,7.007,911,Great Windmill Street
912,395,2,15.9359312,6.7816591,912,Great Windmill Street
913,396,2,4.2529998,7.0689998,913,Bruton Street
914,396,2,3.608146,6.6264238,914,Bruton Street
916,397,2,3.608146,6.6264238,915,Map Frame
915,397,2,3.5814071,8.0692205,916,Map Frame
918,398,3,15.9359312,6.7816591,917,Great Windmill Street
917,398,3,15.9770002,6.6529999,918,Great Windmill Street
919,398,3,16.0006237,6.598434,919,Great Windmill Street
921,399,3,12.3836756,6.5711508,920,Brewer Street
920,399,3,12.7159996,6.8740001,921,Brewer Street
922,399,3,13.1941566,7.3124142,922,Brewer Street
923,400,2,12.3836756,6.5711508,923,Lower John Street
924,400,2,12.0388098,7.0882711,924,Lower John Street
925,401,2,9.8741417,6.9631839,925,Leicester Street (I)
926,401,2,9.1696234,6.4773788,926,Leicester Street (I)
928,402,2,9.1696234,6.4773788,927,Heddon Street
927,402,2,8.5915565,7.4712501,928,Heddon Street
930,403,2,16.0006237,6.598434,929,Queen Street (III)
929,403,2,14.9809999,6.473,930,Queen Street (III)
934,404,6,14.0550003,6.835,931,Wellington Mews
935,404,6,14.585,7.2600002,932,Wellington Mews
933,404,6,14.7539997,7.066,933,Wellington Mews
931,404,6,14.8299999,7.0300002,934,Wellington Mews
936,404,6,14.9280005,6.9120002,935,Wellington Mews
932,404,6,14.9809999,6.473,936,Wellington Mews
937,405,2,19.7973919,7.7411528,937,Map Frame
938,405,2,19.8334618,6.4696159,938,Map Frame
940,406,2,19.2955208,7.436564,939,Leicester Street (II)
939,406,2,19.8334618,6.4696159,940,Leicester Street (II)
942,407,2,5.8547659,6.449976,941,Clifford Street
941,407,2,6.7296228,6.96101,942,Clifford Street
944,408,2,9.8741417,6.9631839,943,Regent Street
943,408,2,10.1989317,6.3798909,944,Regent Street
945,409,2,9.1696234,6.4773788,945,Leicester Street (I)
946,409,2,8.9803562,6.369051,946,Leicester Street (I)
947,410,2,13.9549999,6.3270001,947,Queen Street (III)
948,410,2,14.9809999,6.473,948,Queen Street (III)
950,411,2,13.9549999,6.3270001,949,Sherrard Street
949,411,2,13.5439301,6.8594022,950,Sherrard Street
951,412,2,8.9803562,6.369051,951,Leicester Street (I)
952,412,2,8.9052429,6.316586,952,Leicester Street (I)
954,413,2,9.9764957,6.2520528,953,Unknown-A1
953,413,2,10.1989317,6.3798909,954,Unknown-A1
955,414,2,19.8334618,6.4696159,955,Sidney Alley
956,414,2,19.0699177,6.0947471,956,Sidney Alley
960,415,4,18.680275,7.0631671,957,Princes Street (III)
959,415,4,18.9239998,6.5409999,958,Princes Street (III)
958,415,4,19.0540009,6.1719999,959,Princes Street (III)
957,415,4,19.0699177,6.0947471,960,Princes Street (III)
961,416,3,16.0006237,6.598434,961,Great Windmill Street
963,416,3,16.1189995,6.3249998,962,Great Windmill Street
962,416,3,16.2212505,6.0893149,963,Great Windmill Street
965,417,2,8.9803562,6.369051,964,Unknown-C
964,417,2,9.1711073,6.0717611,965,Unknown-C
967,418,2,9.6064482,6.038558,966,Unknown-A2
966,418,2,9.9764957,6.2520528,967,Unknown-A2
970,419,3,19.8334618,6.4696159,968,Map Frame
968,419,3,19.8362751,6.3704329,969,Map Frame
969,419,3,19.8458424,6.0331941,970,Map Frame
972,420,2,15.5710001,5.9920001,971,Angel Court
971,420,2,16.2212505,6.0893149,972,Angel Court
974,421,2,11.6892138,5.9327779,973,Brewer Street
973,421,2,12.3836756,6.5711508,974,Brewer Street
975,422,3,10.6393805,7.406045,975,Warwick Street
976,422,3,11.1638498,6.5722342,976,Warwick Street
977,422,3,11.6892138,5.9327779,977,Warwick Street
978,423,2,11.6892138,5.9327779,978,Marylebone Street
979,423,2,11.5450001,5.9510002,979,Marylebone Street
981,424,2,4.9678168,5.9228268,980,Clifford Street
980,424,2,5.8547659,6.449976,981,Clifford Street
983,425,2,4.9678168,5.9228268,982,New Bond Street
982,425,2,4.2529998,7.0689998,983,New Bond Street
986,426,3,19.0699177,6.0947471,984,Princes Street (III)
984,426,3,19.0949993,5.973,985,Princes Street (III)
985,426,3,19.0990009,5.8390002,986,Princes Street (III)
987,427,2,12.6246834,5.8145752,987,Francis Street
988,427,2,12.3836756,6.5711508,988,Francis Street
989,428,2,12.6246834,5.8145752,989,Marylebone Street
990,428,2,11.6892138,5.9327779,990,Marylebone Street
991,429,3,12.9380846,5.774405,991,Kings Arms Yard
993,429,3,12.9530001,6.1989999,992,Kings Arms Yard
992,429,3,13.1350002,6.3740001,993,Kings Arms Yard
996,430,3,12.9380846,5.774405,994,Marylebone Street
995,430,3,12.835,5.7880001,995,Marylebone Street
994,430,3,12.6246834,5.8145752,996,Marylebone Street
998,431,2,19.2619991,5.6999998,997,North Coventry Street
997,431,2,19.8458424,6.0331941,998,North Coventry Street
999,432,2,19.0990009,5.8390002,999,Princes Street (III)
1000,432,2,19.2619991,5.6999998,1000,Princes Street (III)
1001,433,2,19.0990009,5.8390002,1001,Coventry Street
1002,433,2,18.3246307,5.6464381,1002,Coventry Street
1005,434,3,17.5764389,7.0717092,1003,Rupert Street
1003,434,3,17.8640003,6.5170002,1004,Rupert Street
1004,434,3,18.3246307,5.6464381,1005,Rupert Street
1006,435,2,11.5450001,5.9510002,1006,Glasshouse Street
1007,435,2,10.609724,5.6415162,1007,Glasshouse Street
1009,436,2,10.1989317,6.3798909,1008,Regent Street
1008,436,2,10.609724,5.6415162,1009,Regent Street
1010,437,2,18.3246307,5.6464381,1010,Coventry Street
1011,437,2,18.1140003,5.5970001,1011,Coventry Street
1013,438,3,14.4879999,5.5700002,1012,Sherrard Street
1012,438,3,14.2379999,5.9840002,1013,Sherrard Street
1014,438,3,13.9549999,6.3270001,1014,Sherrard Street
1015,439,2,14.4879999,5.5700002,1015,Marylebone Street
1016,439,2,12.9380846,5.774405,1016,Marylebone Street
1017,440,2,5.2339149,5.511199,1017,New Bond Street
1018,440,2,4.9678168,5.9228268,1018,New Bond Street
1019,441,2,18.1140003,5.5970001,1019,Coventry Street
1020,441,2,17.6034451,5.4671011,1020,Coventry Street
1022,442,2,17.6034451,5.4671011,1021,Arundel Street
1021,442,2,16.9799995,6.7030001,1022,Arundel Street
1024,443,2,17.6034451,5.4671011,1023,Coventry Street
1023,443,2,17.4820004,5.4390001,1024,Coventry Street
1027,444,3,14.9006586,5.418766,1025,Tichborne Street
1026,444,3,14.5889997,5.5349998,1026,Tichborne Street
1025,444,3,14.4879999,5.5700002,1027,Tichborne Street
1029,445,2,10.609724,5.6415162,1028,Vigo Street
1028,445,2,9.6640987,5.3286061,1029,Vigo Street
1032,446,4,17.4820004,5.4390001,1030,Coventry Street
1030,446,4,17.0319996,5.3249998,1031,Coventry Street
1031,446,4,16.8929996,5.2820001,1032,Coventry Street
1033,446,4,16.6360226,5.190371,1033,Coventry Street
1034,447,4,16.2212505,6.0893149,1034,Great Windmill Street
1035,447,4,16.2600002,6,1035,Great Windmill Street
1037,447,4,16.4920006,5.5419998,1036,Great Windmill Street
1036,447,4,16.6360226,5.190371,1037,Great Windmill Street
1039,448,2,19.2619991,5.6999998,1038,Princes Street (III)
1038,448,2,19.5488033,5.1472368,1039,Princes Street (III)
1046,449,8,16.6360226,5.190371,1040,Tichborne Street
1043,449,8,16.5090008,5.1329999,1041,Tichborne Street
1047,449,8,16.3670006,5.1139998,1042,Tichborne Street
1041,449,8,16.2000008,5.0999999,1043,Tichborne Street
1045,449,8,16.0139999,5.1230001,1044,Tichborne Street
1040,449,8,15.6960001,5.2020001,1045,Tichborne Street
1044,449,8,15.0769997,5.3530002,1046,Tichborne Street
1042,449,8,14.9006586,5.418766,1047,Tichborne Street
1049,450,3,9.6640987,5.3286061,1048,Vigo Street
1050,450,3,8.9399996,5.0890002,1049,Vigo Street
1048,450,3,8.7835855,5.0881882,1050,Vigo Street
1052,451,2,8.7835855,5.0881882,1051,Saville Row
1051,451,2,7.043314,7.9979448,1052,Saville Row
1054,452,2,16.6360226,5.190371,1053,Tichborne Street
1053,452,2,16.6800003,5.0830002,1054,Tichborne Street
1055,453,2,14.6610003,5.0549998,1055,Regents Quadrant
1056,453,2,14.9006586,5.418766,1056,Regents Quadrant
1057,454,2,4.5265012,5.0371218,1057,Grafton Street
1058,454,2,5.2339149,5.511199,1058,Grafton Street
1064,455,7,10.609724,5.6415162,1059,Regents Quadrant
1059,455,7,10.6331596,5.5935211,1060,Regents Quadrant
1060,455,7,10.7034597,5.464922,1061,Regents Quadrant
1065,455,7,10.79,5.3479919,1062,Regents Quadrant
1062,455,7,10.9223604,5.2220879,1063,Regents Quadrant
1061,455,7,11.1044502,5.0831251,1064,Regents Quadrant
1063,455,7,11.3450403,4.9679508,1065,Regents Quadrant
1066,456,2,6.788403,4.9390068,1066,Cork Street
1067,456,2,5.8547659,6.449976,1067,Cork Street
1069,457,3,8.7835855,5.0881882,1068,Burlington Gardens
1070,457,3,8.5550003,5.0869999,1069,Burlington Gardens
1068,457,3,8.0236416,4.7520242,1070,Burlington Gardens
1071,458,2,8.0236416,4.7520242,1071,Old Burlington Street
1072,458,2,6.7296228,6.96101,1072,Old Burlington Street
1077,459,5,6.788403,4.9390068,1073,Cork Mews
1075,459,5,6.2738051,4.647501,1074,Cork Mews
1073,459,5,6.0294609,4.9168949,1075,Cork Mews
1074,459,5,5.7773108,5.1954622,1076,Cork Mews
1076,459,5,5.5526562,5.4974699,1077,Cork Mews
1078,460,2,16.6800003,5.0830002,1078,Picadilly
1079,460,2,15.7796097,4.6266069,1079,Picadilly
1080,461,2,18.7102337,4.5974021,1080,Whitcomb Court
1081,461,2,19.5488033,5.1472368,1081,Whitcomb Court
1082,462,2,18.7102337,4.5974021,1082,Oxendon Street
1083,462,2,18.1140003,5.5970001,1083,Oxendon Street
1093,463,11,13.198,4.573,1084,Regents Quadrant
1089,463,11,13.3929996,4.6149998,1085,Regents Quadrant
1086,463,11,13.5559998,4.6469998,1086,Regents Quadrant
1084,463,11,13.6990004,4.6890001,1087,Regents Quadrant
1091,463,11,13.809,4.7249999,1088,Regents Quadrant
1085,463,11,13.9530001,4.7789998,1089,Regents Quadrant
1087,463,11,14.1120005,4.8540001,1090,Regents Quadrant
1090,463,11,14.2720003,4.9200001,1091,Regents Quadrant
1094,463,11,14.415,4.9780002,1092,Regents Quadrant
1092,463,11,14.4860001,5.013,1093,Regents Quadrant
1088,463,11,14.6610003,5.0549998,1094,Regents Quadrant
1095,464,2,13.198,4.573,1095,Air Street
1096,464,2,12.6246834,5.8145752,1096,Air Street
1098,465,2,19.8458424,6.0331941,1097,Map Frame
1097,465,2,19.8876877,4.5580668,1098,Map Frame
1100,466,2,19.5488033,5.1472368,1099,Princes Street (III)
1099,466,2,19.8876877,4.5580668,1100,Princes Street (III)
1102,467,2,3.6991789,4.482688,1101,Grafton Street
1101,467,2,4.5265012,5.0371218,1102,Grafton Street
1104,468,2,3.6485059,4.44873,1103,Grafton Street
1103,468,2,3.6991789,4.482688,1104,Grafton Street
1106,469,2,3.6485059,4.44873,1105,Map Frame
1105,469,2,3.608146,6.6264238,1106,Map Frame
1108,470,3,16.6800003,5.0830002,1107,Haymarket
1107,470,3,16.8859997,5.138,1108,Haymarket
1109,470,3,17.4349995,4.3189998,1109,Haymarket
1111,471,2,15.7796097,4.6266069,1110,Picadilly
1110,471,2,15.0819998,4.2729998,1111,Picadilly
1113,472,2,14.6610003,5.0549998,1112,Regent Street
1112,472,2,15.0819998,4.2729998,1113,Regent Street
1114,473,3,17.4644604,4.2521591,1114,Arundel Place
1115,473,3,18.0230007,4.6139998,1115,Arundel Place
1116,473,3,17.4820004,5.4390001,1116,Arundel Place
1117,474,2,17.4349995,4.3189998,1117,Haymarket
1118,474,2,17.4644604,4.2521591,1118,Haymarket
1120,475,2,8.0236416,4.7520242,1119,Burlington Gardens
1119,475,2,7.2178321,4.2440319,1120,Burlington Gardens
1121,476,2,7.2178321,4.2440319,1121,Cork Street
1122,476,2,6.788403,4.9390068,1122,Cork Street
1123,477,2,17.4644604,4.2521591,1123,Haymarket
1124,477,2,17.5949993,4.0739999,1124,Haymarket
1126,478,2,19.0513325,4.0255418,1125,Panton Street
1125,478,2,19.8876877,4.5580668,1126,Panton Street
1127,479,2,19.0513325,4.0255418,1127,Oxendon Street
1128,479,2,18.7102337,4.5974021,1128,Oxendon Street
1130,480,2,7.2178321,4.2440319,1129,Burlington Gardens
1129,480,2,6.5689998,3.835,1130,Burlington Gardens
1131,481,2,6.5689998,3.835,1131,New Bond Street
1132,481,2,5.2339149,5.511199,1132,New Bond Street
1134,482,2,16.5489998,3.8050001,1133,Jermyn Street
1133,482,2,17.4349995,4.3189998,1134,Jermyn Street
1135,483,4,19.8876877,4.5580668,1135,Map Frame
1136,483,4,19.8896084,4.4903941,1136,Map Frame
1137,483,4,19.9120007,3.701,1137,Map Frame
1138,483,4,19.2561378,3.6821809,1138,Map Frame
1140,484,2,19.2561378,3.6821809,1139,Oxendon Street
1139,484,2,19.0513325,4.0255418,1140,Oxendon Street
1142,485,2,16.3569241,3.6810589,1141,Jermyn Street
1141,485,2,16.5489998,3.8050001,1142,Jermyn Street
1144,486,2,16.3569241,3.6810589,1143,White Bear Yard
1143,486,2,15.7796097,4.6266069,1144,White Bear Yard
1145,487,2,19.2561378,3.6821809,1145,Map Frame
1146,487,2,18.4994316,3.66047,1146,Map Frame
1148,488,2,18.4994316,3.66047,1147,Panton Street
1147,488,2,19.0513325,4.0255418,1148,Panton Street
1149,489,2,18.4994316,3.66047,1149,Map Frame
1150,489,2,17.8633022,3.6422169,1150,Map Frame
1151,490,2,17.5949993,4.0739999,1151,Haymarket
1152,490,2,17.8633022,3.6422169,1152,Haymarket
1153,491,2,17.8633022,3.6422169,1153,Map Frame
1154,491,2,16.807991,3.611937,1154,Map Frame
1156,492,2,16.807991,3.611937,1155,St James's Market
1155,492,2,17.5949993,4.0739999,1156,St James's Market
1157,493,3,16.807991,3.611937,1157,Map Frame
1158,493,3,16.7561836,3.610451,1158,Map Frame
1159,493,3,16.6703091,3.6079869,1159,Map Frame
1160,494,2,16.5489998,3.8050001,1160,Market Street (II)
1161,494,2,16.6703091,3.6079869,1161,Market Street (II)
1162,495,2,16.6703091,3.6079869,1162,Map Frame
1163,495,2,16.211174,3.5948131,1163,Map Frame
1164,496,2,16.211174,3.5948131,1164,Jermyn Street
1165,496,2,16.3569241,3.6810589,1165,Jermyn Street
1166,497,2,11.6251144,3.5709989,1166,Vine Street
1167,497,2,11.9694595,3.751684,1167,Vine Street
1168,498,2,16.211174,3.5948131,1168,Map Frame
1169,498,2,15.4755154,3.5709219,1169,Map Frame
1170,499,2,15.4755154,3.5709219,1170,Regent Street
1171,499,2,15.0819998,4.2729998,1171,Regent Street
1173,500,2,15.4755154,3.5709219,1172,Map Frame
1172,500,2,13.6920004,3.513,1173,Map Frame
1175,501,2,15.0819998,4.2729998,1174,Picadilly
1174,501,2,13.6920004,3.513,1175,Picadilly
1176,502,2,13.6920004,3.513,1176,Air Street
1177,502,2,13.198,4.573,1177,Air Street
1178,503,2,13.6920004,3.513,1178,Map Frame
1179,503,2,12.1245174,3.4754789,1179,Map Frame
1180,504,2,11.9694595,3.751684,1180,George Court (I)
1181,504,2,12.1245174,3.4754789,1181,George Court (I)
1182,505,2,12.1245174,3.4754789,1182,Map Frame
1183,505,2,11.6879988,3.46503,1183,Map Frame
1184,506,2,11.6251144,3.5709989,1184,Swallow Street
1185,506,2,11.6879988,3.46503,1185,Swallow Street
1187,507,2,11.6879988,3.46503,1186,Map Frame
1186,507,2,10.7841892,3.4390969,1187,Map Frame
1188,508,2,9.6640987,5.3286061,1188,Sackville Street
1189,508,2,10.7841892,3.4390969,1189,Sackville Street
1191,509,2,10.7841892,3.4390969,1190,Map Frame
1190,509,2,9.7828522,3.4103661,1191,Map Frame
1192,510,2,9.7828522,3.4103661,1192,Albany Street
1193,510,2,8.7835855,5.0881882,1193,Albany Street
1195,511,2,9.7828522,3.4103661,1194,Map Frame
1194,511,2,7.7992611,3.353451,1195,Map Frame
1196,512,2,7.2178321,4.2440319,1196,Burlington Arcade
1197,512,2,7.7992611,3.353451,1197,Burlington Arcade
1198,513,2,7.7992611,3.353451,1198,Map Frame
1199,513,2,6.9635701,3.329473,1199,Map Frame
1201,514,2,6.5689998,3.835,1200,New Bond Street
1200,514,2,6.9635701,3.329473,1201,New Bond Street
1202,515,2,6.9635701,3.329473,1202,Map Frame
1203,515,2,5.6504951,3.2917969,1203,Map Frame
1205,516,2,4.5265012,5.0371218,1204,Albemarle Street
1204,516,2,5.6504951,3.2917969,1205,Albemarle Street
1207,517,2,5.6504951,3.2917969,1206,Map Frame
1206,517,2,4.5018001,3.2588379,1207,Map Frame
1209,518,2,3.6991789,4.482688,1208,Dover Street
1208,518,2,4.5018001,3.2588379,1209,Dover Street
1210,519,3,4.5018001,3.2588379,1210,Map Frame
1212,519,3,3.671,3.2349999,1211,Map Frame
1211,519,3,3.6485059,4.44873,1212,Map Frame
1213,520,3,11.7447996,4.812386,1213,Vine Street
1214,520,3,11.8784599,5.174901,1214,Vine Street
1215,520,3,11.5450001,5.9510002,1215,Vine Street
1216,521,2,11.7447996,4.812386,1216,Vine Street
1217,521,2,11.7215538,4.7587409,1217,Vine Street
1218,522,3,11.3450403,4.9679508,1218,Regents Quadrant
1219,522,3,11.5410604,4.8256912,1219,Regents Quadrant
1220,522,3,11.7215538,4.7587409,1220,Regents Quadrant
1221,523,4,11.7215538,4.7587409,1221,Regents Quadrant
1222,523,4,11.9124603,4.7007518,1222,Regents Quadrant
1223,523,4,12.1021299,4.6366978,1223,Regents Quadrant
1224,523,4,12.2367535,4.6037641,1224,Regents Quadrant
1225,524,7,12.2367535,4.6037641,1225,Regents Quadrant
1226,524,7,12.3080902,4.5863128,1226,Regents Quadrant
1227,524,7,12.4647598,4.5699968,1227,Regents Quadrant
1228,524,7,12.7875404,4.5581861,1228,Regents Quadrant
1229,524,7,12.9984198,4.5517359,1229,Regents Quadrant
1230,524,7,13.1107798,4.5683851,1230,Regents Quadrant
1231,524,7,13.198,4.573,1231,Regents Quadrant
1232,525,2,12.3289022,3.8954501,1232,Vine Street
1233,525,2,12.45576,3.953624,1233,Vine Street
1234,526,3,12.2367535,4.6037641,1234,Vine Street
1235,526,3,12.1689796,4.2499371,1235,Vine Street
1236,526,3,12.3289022,3.8954501,1236,Vine Street
1237,527,2,11.9694595,3.751684,1237,Vine Street
1238,527,2,12.3289022,3.8954501,1238,Vine Street
1239,528,3,11.3450403,4.9679508,1239,Swallow Street
1240,528,3,11.0809002,4.4880772,1240,Swallow Street
1241,528,3,11.6251144,3.5709989,1241,Swallow Street